      2.10          N: GNSS NAV DATA                        RINEX VERSION / TYPE
fic2rin                                 04/22/2023 00:18:04 PGM / RUN BY / DATE
                                                            END OF HEADER
2  23  4 21  2  0  0.0 -.604014843702D-03  .375166564481D-11  .000000000000D+00
     .570000000000D+02 -.129812500000D+03  .406481217289D-08 -.312088890736D+01
    -.671669840813D-05  .174162752228D-01  .104364007711D-04  .515953985023D+04
     .439200000000D+06  .284984707832D-06  .292047390839D+01  .240281224251D-06
     .967616813833D+00  .172562500000D+03 -.129431465379D+01 -.757602985777D-08
    -.139291516336D-09  .100000000000D+01  .225800000000D+04  .000000000000D+00
     .240000000000D+01  .000000000000D+00 -.176951289177D-07  .570000000000D+02
     .432000000000D+06  .400000000000D+01
1  23  4 21  2  0  0.0  .191548373550D-03 -.318323145621D-11  .000000000000D+00
     .880000000000D+02 -.119062500000D+03  .368801076331D-08 -.147078165162D+01
    -.606663525105D-05  .127304412890D-01  .105239450932D-04  .515365023613D+04
     .439200000000D+06  .292435288429D-06  .301850148146D+01  .186264514923D-08
     .990128058259D+00  .187343750000D+03  .950151943357D+00 -.751424156975D-08
    -.467876631797D-10  .100000000000D+01  .225800000000D+04  .000000000000D+00
     .240000000000D+01  .000000000000D+00  .465661287308D-08  .880000000000D+02
     .432000000000D+06  .400000000000D+01
5  23  4 21  2  0  0.0 -.124194659293D-03 -.147792889038D-11  .000000000000D+00
     .103000000000D+03  .305000000000D+02  .460876340207D-08  .113389303069D+01
     .171177089214D-05  .586472242139D-02  .102836638689D-04  .515365127563D+04
     .439200000000D+06 -.150874257088D-06 -.228052161907D+01  .521540641785D-07
     .965440326739D+00  .188000000000D+03  .113366092850D+01 -.804997817105D-08
     .562880589093D-09  .100000000000D+01  .225800000000D+04  .000000000000D+00
     .240000000000D+01  .000000000000D+00 -.111758708954D-07  .103000000000D+03
     .432000000000D+06  .400000000000D+01
3  23  4 21  2  0  0.0 -.324162654579D-03  .943600753089D-11  .000000000000D+00
     .630000000000D+02  .217187500000D+02  .428374986395D-08 -.261968561596D+01
     .121071934700D-05  .469410466030D-02  .981055200100D-05  .515368109131D+04
     .439200000000D+06  .175088644028D-06 -.223442841316D+01 -.614672899246D-07
     .978376706506D+00  .198531250000D+03  .100829515575D+01 -.774425115057D-08
     .657884546389D-09  .100000000000D+01  .225800000000D+04  .000000000000D+00
     .240000000000D+01  .000000000000D+00  .186264514923D-08  .630000000000D+02
     .432000000000D+06  .400000000000D+01
19 23  4 21  5 59 44.0  .306493137032D-03  .511590769747D-11  .000000000000D+00
     .410000000000D+02 -.531250000000D+02  .444804242168D-08 -.133005335187D+01
    -.265985727310D-05  .931126752403D-02  .167824327946D-05  .515361213493D+04
     .453584000000D+06 -.167638063431D-06  .206071721653D+01  .353902578354D-07
     .973473386925D+00  .357750000000D+03  .227533694670D+01 -.845642367256D-08
    -.321441960776D-11  .100000000000D+01  .225800000000D+04  .000000000000D+00
     .240000000000D+01  .000000000000D+00 -.153668224812D-07  .410000000000D+02
     .446400000000D+06  .400000000000D+01
2  23  4 21  6  0  0.0 -.603961292654D-03  .375166564481D-11  .000000000000D+00
     .650000000000D+02 -.105968750000D+03  .409695636896D-08 -.102759050978D+01
    -.552460551262D-05  .174183247145D-01  .987946987152D-05  .515953995132D+04
     .453600000000D+06 -.322237610817D-06  .292036197175D+01  .707805156708D-07
     .967613541285D+00  .197875000000D+03 -.129440987805D+01 -.809247994141D-08
     .500020827875D-11  .100000000000D+01  .225800000000D+04  .000000000000D+00
     .240000000000D+01  .000000000000D+00 -.176951289177D-07  .650000000000D+02
     .446400000000D+06  .400000000000D+01
1  23  4 21  6  0  0.0  .191502273083D-03 -.318323145621D-11  .000000000000D+00
     .980000000000D+02 -.108093750000D+03  .363229415677D-08  .629595392535D+00
    -.573880970478D-05  .127317813458D-01  .109951943159D-04  .515365257645D+04
     .453600000000D+06 -.128522515297D-06  .301839044890D+01  .931322574615D-07
     .990125316751D+00  .185437500000D+03  .950152575337D+00 -.779246744469D-08
    -.184650548579D-09  .100000000000D+01  .225800000000D+04  .000000000000D+00
     .340000000000D+01  .000000000000D+00  .465661287308D-08  .980000000000D+02
     .446400000000D+06  .400000000000D+01
5  23  4 21  6  0  0.0 -.124215614051D-03 -.147792889038D-11  .000000000000D+00
     .109000000000D+03  .133437500000D+02  .449018703431D-08 -.304892387233D+01
     .474974513054D-06  .586619402748D-02  .102333724499D-04  .515365021515D+04
     .453600000000D+06  .115483999252D-06 -.228063536242D+01 -.128522515297D-06
     .965450390153D+00  .185125000000D+03  .113368135230D+01 -.779139597149D-08
     .667170647478D-09  .100000000000D+01  .225800000000D+04  .000000000000D+00
     .240000000000D+01  .000000000000D+00 -.111758708954D-07  .109000000000D+03
     .446400000000D+06  .400000000000D+01
3  23  4 21  6  0  0.0 -.324027147144D-03  .943600753089D-11  .000000000000D+00
     .750000000000D+02  .273750000000D+02  .432017995284D-08 -.519389614548D+00
     .148639082909D-05  .469451409299D-02  .999122858047D-05  .515368083382D+04
     .453600000000D+06 -.149011611938D-07 -.223454050780D+01  .912696123123D-07
     .978386399801D+00  .201187500000D+03  .100834968017D+01 -.786711341114D-08
     .713958310658D-09  .100000000000D+01  .225800000000D+04  .000000000000D+00
     .340000000000D+01  .000000000000D+00  .186264514923D-08  .750000000000D+02
     .446400000000D+06  .400000000000D+01
4  23  4 21  6  0  0.0  .220262445509D-04  .932232069317D-11  .000000000000D+00
     .155000000000D+03 -.184687500000D+02  .514450000336D-08  .234017468873D+01
    -.899657607079D-06  .236060412135D-02  .495277345181D-05  .515367337418D+04
     .453600000000D+06 -.819563865662D-07 -.115312542074D+01  .465661287308D-07
     .962246453267D+00  .287937500000D+03 -.297641286750D+01 -.828463080241D-08
    -.215008955986D-09  .100000000000D+01  .225800000000D+04  .000000000000D+00
     .240000000000D+01  .000000000000D+00 -.465661287308D-08  .411000000000D+03
     .446400000000D+06  .400000000000D+01
12 23  4 21  6  0  0.0 -.366514548659D-03 -.466116034659D-11  .000000000000D+00
     .680000000000D+02  .123593750000D+03  .440661212451D-08 -.772741676433D+00
     .651180744171D-05  .889508111868D-02  .713020563126D-05  .515362429237D+04
     .453600000000D+06 -.763684511185D-07  .976448698973D+00  .109896063805D-06
     .965845783262D+00  .245875000000D+03  .136447321613D+01 -.825891544555D-08
     .297155234851D-09  .100000000000D+01  .225800000000D+04  .000000000000D+00
     .340000000000D+01  .000000000000D+00 -.125728547573D-07  .680000000000D+02
     .446400000000D+06  .400000000000D+01
10 23  4 21  6  0  0.0 -.337138772011D-04 -.159161572810D-11  .000000000000D+00
     .830000000000D+02  .304062500000D+02  .420624663563D-08 -.147486634126D+01
     .156089663506D-05  .845925952308D-02  .969879329205D-05  .515368510437D+04
     .453600000000D+06  .126659870148D-06 -.223719806087D+01 -.260770320892D-07
     .978130618815D+00  .198593750000D+03 -.242891147243D+01 -.772675042160D-08
     .734316301507D-09  .100000000000D+01  .225800000000D+04  .000000000000D+00
     .240000000000D+01  .000000000000D+00  .232830643654D-08  .830000000000D+02
     .446400000000D+06  .400000000000D+01
8  23  4 21  6  0  0.0 -.118758995086D-03 -.181898940355D-11  .000000000000D+00
     .550000000000D+02 -.326875000000D+02  .477698469487D-08  .282453812677D+01
    -.164099037647D-05  .844805559609D-02  .646337866783D-06  .515368386841D+04
     .453600000000D+06 -.104308128357D-06  .192759933115D+01 -.106170773506D-06
     .958842920228D+00  .367968750000D+03  .257521422298D+00 -.849785396973D-08
    -.435732435719D-10  .100000000000D+01  .225800000000D+04  .000000000000D+00
     .240000000000D+01  .000000000000D+00  .512227416039D-08  .550000000000D+02
     .446400000000D+06  .400000000000D+01
29 23  4 21  6  0  0.0 -.596375670284D-03 -.159161572810D-11  .000000000000D+00
     .830000000000D+02 -.425312500000D+02  .437911097898D-08  .297126640654D+01
    -.220164656639D-05  .243577174842D-02  .100769102573D-05  .515378007889D+04
     .453600000000D+06  .279396772385D-07  .203013102272D+01  .745058059692D-08
     .976657768985D+00  .368250000000D+03  .235877989507D+01 -.828713090655D-08
    -.133576992589D-09  .100000000000D+01  .225800000000D+04  .000000000000D+00
     .340000000000D+01  .000000000000D+00 -.102445483208D-07  .830000000000D+02
     .446400000000D+06  .400000000000D+01
31 23  4 21  6  0  0.0 -.214444007725D-03 -.909494701773D-12  .000000000000D+00
     .600000000000D+02  .931250000000D+01  .444839957941D-08 -.771533775696D+00
     .458210706711D-06  .106022050604D-01  .112820416689D-04  .515420582199D+04
     .453600000000D+06  .219792127609D-06 -.117943919741D+00  .147148966789D-06
     .954949169192D+00  .159625000000D+03  .525558121274D+00 -.795961726429D-08
    -.595024785171D-09  .100000000000D+01  .225800000000D+04  .000000000000D+00
     .240000000000D+01  .000000000000D+00 -.135041773319D-07  .600000000000D+02
     .446400000000D+06  .400000000000D+01
